{
    "links": {
        "self": "http://www.neowsapp.com/rest/v1/neo/3673544?api_key=iIulBulltgU6a56xZRHN4H3l9WmuAYTsLGpBGhQ2"
    },
    "id": "3673544",
    "neo_reference_id": "3673544",
    "name": "(2014 LV14)",
    "designation": "2014 LV14",
    "nasa_jpl_url": "http://ssd.jpl.nasa.gov/sbdb.cgi?sstr=3673544",
    "absolute_magnitude_h": 24.0,
    "estimated_diameter": {
        "kilometers": {
            "estimated_diameter_min": 0.0421264611,
            "estimated_diameter_max": 0.0941976306
        },
        "meters": {
            "estimated_diameter_min": 42.1264610556,
            "estimated_diameter_max": 94.1976305719
        },
        "miles": {
            "estimated_diameter_min": 0.0261761612,
            "estimated_diameter_max": 0.0585316759
        },
        "feet": {
            "estimated_diameter_min": 138.2101784897,
            "estimated_diameter_max": 309.0473542854
        }
    },
    "is_potentially_hazardous_asteroid": false,
    "close_approach_data": [
        {
            "close_approach_date": "2014-05-29",
            "close_approach_date_full": "2014-May-29 05:15",
            "epoch_date_close_approach": 1401340500000,
            "relative_velocity": {
                "kilometers_per_second": "5.5777678737",
                "kilometers_per_hour": "20079.9643453896",
                "miles_per_hour": "12476.9089567228"
            },
            "miss_distance": {
                "astronomical": "0.1578613275",
                "lunar": "61.4080563975",
                "kilometers": "23615718.349372425",
                "miles": "14674126.933992465"
            },
            "orbiting_body": "Earth"
        },
        {
            "close_approach_date": "2021-03-19",
            "close_approach_date_full": "2021-Mar-19 14:25",
            "epoch_date_close_approach": 1616163900000,
            "relative_velocity": {
                "kilometers_per_second": "6.8345656289",
                "kilometers_per_hour": "24604.4362641212",
                "miles_per_hour": "15288.2398553369"
            },
            "miss_distance": {
                "astronomical": "0.0946358771",
                "lunar": "36.8133561919",
                "kilometers": "14157325.639741777",
                "miles": "8796954.2323474426"
            },
            "orbiting_body": "Mars"
        }
    ],
    "orbital_data": {
        "orbit_id": "6",
        "orbit_determination_date": "2017-04-06 08:40:09",
        "first_observation_date": "2014-06-02",
        "last_observation_date": "2014-06-17",
        "data_arc_in_days": 15,
        "observations_used": 12,
        "orbit_uncertainty": "7",
        "minimum_orbit_intersection": ".157717",
        "jupiter_tisserand_invariant": "4.485",
        "epoch_osculation": "2459000.5",
        "eccentricity": ".2341307524104464",
        "semi_major_axis": "1.505325732522435",
        "inclination": "10.35405750623414",
        "ascending_node_longitude": "81.40423970211077",
        "orbital_period": "674.5966114531601",
        "perihelion_distance": "1.152882686144151",
        "perihelion_argument": "147.6928068662145",
        "aphelion_distance": "1.857768778900718",
        "perihelion_time": "2458809.835084384396",
        "mean_anomaly": "101.7487613431085",
        "mean_motion": ".5336522506754338",
        "equinox": "J2000",
        "orbit_class": {
            "orbit_class_type": "AMO",
            "orbit_class_description": "Near-Earth asteroid orbits similar to that of 1221 Amor",
            "orbit_class_range": "1.017 AU < q (perihelion) < 1.3 AU"
        }
    },
    "is_sentry_object": false
}